[{"OBJECT_NAME":"ONEWEB-0429","OBJECT_ID":"2021-132AH","EPOCH":"2026-06-08T00:09:14.218848","MEAN_MOTION":13.18684669,"ECCENTRICITY":0.0001724,"INCLINATION":87.916,"RA_OF_ASC_NODE":337.2867,"ARG_OF_PERICENTER":90.6524,"MEAN_ANOMALY":269.4806,"EPHEMERIS_TYPE":0,"CLASSIFICATION_TYPE":"U","NORAD_CAT_ID":50500,"ELEMENT_SET_NO":999,"REV_AT_EPOCH":22037,"BSTAR":9.6807e-05,"MEAN_MOTION_DOT":5.1e-07,"MEAN_MOTION_DDOT":0.0},{"OBJECT_NAME":"ONEWEB-0430","OBJECT_ID":"2021-132AJ","EPOCH":"2026-06-07T22:02:58.629696","MEAN_MOTION":13.18685435,"ECCENTRICITY":0.0001698,"INCLINATION":87.9162,"RA_OF_ASC_NODE":337.3025,"ARG_OF_PERICENTER":98.0069,"MEAN_ANOMALY":262.1255,"EPHEMERIS_TYPE":0,"CLASSIFICATION_TYPE":"U","NORAD_CAT_ID":50501,"ELEMENT_SET_NO":999,"REV_AT_EPOCH":22040,"BSTAR":0.00019945,"MEAN_MOTION_DOT":9.2e-07,"MEAN_MOTION_DDOT":0.0},{"OBJECT_NAME":"ONEWEB-0432","OBJECT_ID":"2021-132AK","EPOCH":"2026-06-08T00:40:29.902368","MEAN_MOTION":13.18260186,"ECCENTRICITY":0.0002103,"INCLINATION":87.9162,"RA_OF_ASC_NODE":337.2535,"ARG_OF_PERICENTER":100.4857,"MEAN_ANOMALY":259.6512,"EPHEMERIS_TYPE":0,"CLASSIFICATION_TYPE":"U","NORAD_CAT_ID":50502,"ELEMENT_SET_NO":999,"REV_AT_EPOCH":22037,"BSTAR":-0.10518,"MEAN_MOTION_DOT":-0.00041008,"MEAN_MOTION_DDOT":0.0},{"OBJECT_NAME":"ONEWEB-0440","OBJECT_ID":"2021-132AL","EPOCH":"2026-06-08T00:21:22.131936","MEAN_MOTION":13.18684753,"ECCENTRICITY":0.0001634,"INCLINATION":87.9165,"RA_OF_ASC_NODE":337.2786,"ARG_OF_PERICENTER":80.4355,"MEAN_ANOMALY":279.6962,"EPHEMERIS_TYPE":0,"CLASSIFICATION_TYPE":"U","NORAD_CAT_ID":50503,"ELEMENT_SET_NO":999,"REV_AT_EPOCH":22036,"BSTAR":0.00030791,"MEAN_MOTION_DOT":1.34e-06,"MEAN_MOTION_DDOT":0.0},{"OBJECT_NAME":"ONEWEB-0450","OBJECT_ID":"2021-132AM","EPOCH":"2026-06-08T00:11:52.242720","MEAN_MOTION":13.18684766,"ECCENTRICITY":0.0001635,"INCLINATION":87.9158,"RA_OF_ASC_NODE":337.2862,"ARG_OF_PERICENTER":92.482,"MEAN_ANOMALY":267.6499,"EPHEMERIS_TYPE":0,"CLASSIFICATION_TYPE":"U","NORAD_CAT_ID":50504,"ELEMENT_SET_NO":999,"REV_AT_EPOCH":22039,"BSTAR":0.00011695999999999999,"MEAN_MOTION_DOT":5.9e-07,"MEAN_MOTION_DDOT":0.0},{"OBJECT_NAME":"ONEWEB-0410","OBJECT_ID":"2022-012A","EPOCH":"2026-06-08T02:31:06.348576","MEAN_MOTION":13.17647637,"ECCENTRICITY":0.0003174,"INCLINATION":87.9151,"RA_OF_ASC_NODE":7.6633,"ARG_OF_PERICENTER":82.6559,"MEAN_ANOMALY":277.4933,"EPHEMERIS_TYPE":0,"CLASSIFICATION_TYPE":"U","NORAD_CAT_ID":51622,"ELEMENT_SET_NO":999,"REV_AT_EPOCH":21250,"BSTAR":-2.487e-05,"MEAN_MOTION_DOT":3e-08,"MEAN_MOTION_DDOT":0.0},{"OBJECT_NAME":"ONEWEB-0411","OBJECT_ID":"2022-012B","EPOCH":"2026-06-08T03:43:56.026848","MEAN_MOTION":13.10372908,"ECCENTRICITY":0.0001491,"INCLINATION":87.8849,"RA_OF_ASC_NODE":38.0653,"ARG_OF_PERICENTER":97.6793,"MEAN_ANOMALY":262.4503,"EPHEMERIS_TYPE":0,"CLASSIFICATION_TYPE":"U","NORAD_CAT_ID":51623,"ELEMENT_SET_NO":999,"REV_AT_EPOCH":20810,"BSTAR":-0.0016319000000000001,"MEAN_MOTION_DOT":-5.57e-06,"MEAN_MOTION_DDOT":0.0},{"OBJECT_NAME":"ONEWEB-0415","OBJECT_ID":"2022-012C","EPOCH":"2026-06-08T03:39:09.544320","MEAN_MOTION":13.10372753,"ECCENTRICITY":0.0001717,"INCLINATION":87.8844,"RA_OF_ASC_NODE":38.0646,"ARG_OF_PERICENTER":89.6885,"MEAN_ANOMALY":270.4439,"EPHEMERIS_TYPE":0,"CLASSIFICATION_TYPE":"U","NORAD_CAT_ID":51624,"ELEMENT_SET_NO":999,"REV_AT_EPOCH":20810,"BSTAR":-0.0015475,"MEAN_MOTION_DOT":-5.28e-06,"MEAN_MOTION_DDOT":0.0},{"OBJECT_NAME":"ONEWEB-0416","OBJECT_ID":"2022-012D","EPOCH":"2026-06-08T03:55:54.599232","MEAN_MOTION":13.10376954,"ECCENTRICITY":0.0001949,"INCLINATION":87.8847,"RA_OF_ASC_NODE":38.0812,"ARG_OF_PERICENTER":94.6324,"MEAN_ANOMALY":265.5026,"EPHEMERIS_TYPE":0,"CLASSIFICATION_TYPE":"U","NORAD_CAT_ID":51625,"ELEMENT_SET_NO":999,"REV_AT_EPOCH":20814,"BSTAR":-0.0022635,"MEAN_MOTION_DOT":-7.77e-06,"MEAN_MOTION_DDOT":0.0},{"OBJECT_NAME":"ONEWEB-0422","OBJECT_ID":"2022-012E","EPOCH":"2026-06-08T02:45:41.685984","MEAN_MOTION":13.17648335,"ECCENTRICITY":0.0001298,"INCLINATION":87.9149,"RA_OF_ASC_NODE":7.6624,"ARG_OF_PERICENTER":73.6683,"MEAN_ANOMALY":286.4592,"EPHEMERIS_TYPE":0,"CLASSIFICATION_TYPE":"U","NORAD_CAT_ID":51626,"ELEMENT_SET_NO":999,"REV_AT_EPOCH":21261,"BSTAR":0.00010651,"MEAN_MOTION_DOT":5.4e-07,"MEAN_MOTION_DDOT":0.0},{"OBJECT_NAME":"ONEWEB-0423","OBJECT_ID":"2022-012F","EPOCH":"2026-06-08T02:35:59.168544","MEAN_MOTION":13.17649501,"ECCENTRICITY":0.0001918,"INCLINATION":87.9142,"RA_OF_ASC_NODE":7.6699,"ARG_OF_PERICENTER":83.6736,"MEAN_ANOMALY":276.4614,"EPHEMERIS_TYPE":0,"CLASSIFICATION_TYPE":"U","NORAD_CAT_ID":51627,"ELEMENT_SET_NO":999,"REV_AT_EPOCH":21250,"BSTAR":0.00025425,"MEAN_MOTION_DOT":1.12e-06,"MEAN_MOTION_DDOT":0.0},{"OBJECT_NAME":"ONEWEB-0425","OBJECT_ID":"2022-012G","EPOCH":"2026-06-08T04:10:16.197312","MEAN_MOTION":13.10376747,"ECCENTRICITY":0.0002134,"INCLINATION":87.8845,"RA_OF_ASC_NODE":38.0623,"ARG_OF_PERICENTER":78.945,"MEAN_ANOMALY":281.1918,"EPHEMERIS_TYPE":0,"CLASSIFICATION_TYPE":"U","NORAD_CAT_ID":51628,"ELEMENT_SET_NO":999,"REV_AT_EPOCH":20814,"BSTAR":9.578100000000001e-05,"MEAN_MOTION_DOT":4.6e-07,"MEAN_MOTION_DDOT":0.0},{"OBJECT_NAME":"ONEWEB-0428","OBJECT_ID":"2022-012H","EPOCH":"2026-06-08T03:41:32.738496","MEAN_MOTION":13.10372883,"ECCENTRICITY":0.0001793,"INCLINATION":87.8841,"RA_OF_ASC_NODE":38.0735,"ARG_OF_PERICENTER":80.2295,"MEAN_ANOMALY":279.9035,"EPHEMERIS_TYPE":0,"CLASSIFICATION_TYPE":"U","NORAD_CAT_ID":51629,"ELEMENT_SET_NO":999,"REV_AT_EPOCH":20810,"BSTAR":-0.0016133,"MEAN_MOTION_DOT":-5.5e-06,"MEAN_MOTION_DDOT":0.0},{"OBJECT_NAME":"ONEWEB-0431","OBJECT_ID":"2022-012J","EPOCH":"2026-06-08T04:48:18.552672","MEAN_MOTION":13.10370927,"ECCENTRICITY":0.0001351,"INCLINATION":87.8842,"RA_OF_ASC_NODE":38.0563,"ARG_OF_PERICENTER":97.073,"MEAN_ANOMALY":263.0551,"EPHEMERIS_TYPE":0,"CLASSIFICATION_TYPE":"U","NORAD_CAT_ID":51630,"ELEMENT_SET_NO":999,"REV_AT_EPOCH":20816,"BSTAR":0.0012295000000000001,"MEAN_MOTION_DOT":4.42e-06,"MEAN_MOTION_DDOT":0.0},{"OBJECT_NAME":"ONEWEB-0434","OBJECT_ID":"2022-012K","EPOCH":"2026-06-08T04:15:14.532192","MEAN_MOTION":13.1037525,"ECCENTRICITY":0.0002428,"INCLINATION":87.8848,"RA_OF_ASC_NODE":38.086,"ARG_OF_PERICENTER":75.8234,"MEAN_ANOMALY":284.3163,"EPHEMERIS_TYPE":0,"CLASSIFICATION_TYPE":"U","NORAD_CAT_ID":51631,"ELEMENT_SET_NO":999,"REV_AT_EPOCH":20814,"BSTAR":0.0010195,"MEAN_MOTION_DOT":3.69e-06,"MEAN_MOTION_DDOT":0.0},{"OBJECT_NAME":"ONEWEB-0435","OBJECT_ID":"2022-012L","EPOCH":"2026-06-08T04:26:58.354368","MEAN_MOTION":13.10372133,"ECCENTRICITY":0.0001463,"INCLINATION":87.8841,"RA_OF_ASC_NODE":38.0714,"ARG_OF_PERICENTER":77.0855,"MEAN_ANOMALY":283.0435,"EPHEMERIS_TYPE":0,"CLASSIFICATION_TYPE":"U","NORAD_CAT_ID":51632,"ELEMENT_SET_NO":999,"REV_AT_EPOCH":20813,"BSTAR":0.0018817,"MEAN_MOTION_DOT":6.7e-06,"MEAN_MOTION_DDOT":0.0}]