ONEWEB-0429             
1 50500U 21132AH  26159.00641457  .00000051  00000+0  96807-4 0  9998
2 50500  87.9160 337.2867 0001724  90.6524 269.4806 13.18684669220370
ONEWEB-0430             
1 50501U 21132AJ  26158.91873414  .00000092  00000+0  19945-3 0  9990
2 50501  87.9162 337.3025 0001698  98.0069 262.1255 13.18685435220400
ONEWEB-0432             
1 50502U 21132AK  26159.02812387 -.00041008  00000+0 -10518+0 0  9993
2 50502  87.9162 337.2535 0002103 100.4857 259.6512 13.18260186220376
ONEWEB-0440             
1 50503U 21132AL  26159.01483949  .00000134  00000+0  30791-3 0  9993
2 50503  87.9165 337.2786 0001634  80.4355 279.6962 13.18684753220366
ONEWEB-0450             
1 50504U 21132AM  26159.00824355  .00000059  00000+0  11696-3 0  9992
2 50504  87.9158 337.2862 0001635  92.4820 267.6499 13.18684766220394
ONEWEB-0410             
1 51622U 22012A   26159.10493459  .00000003  00000+0 -24870-4 0  9999
2 51622  87.9151   7.6633 0003174  82.6559 277.4933 13.17647637212504
ONEWEB-0411             
1 51623U 22012B   26159.15550957 -.00000557  00000+0 -16319-2 0  9994
2 51623  87.8849  38.0653 0001491  97.6793 262.4503 13.10372908208101
ONEWEB-0415             
1 51624U 22012C   26159.15219380 -.00000528  00000+0 -15475-2 0  9997
2 51624  87.8844  38.0646 0001717  89.6885 270.4439 13.10372753208108
ONEWEB-0416             
1 51625U 22012D   26159.16382638 -.00000777  00000+0 -22635-2 0  9998
2 51625  87.8847  38.0812 0001949  94.6324 265.5026 13.10376954208146
ONEWEB-0422             
1 51626U 22012E   26159.11506581  .00000054  00000+0  10651-3 0  9991
2 51626  87.9149   7.6624 0001298  73.6683 286.4592 13.17648335212617
ONEWEB-0423             
1 51627U 22012F   26159.10832371  .00000112  00000+0  25425-3 0  9990
2 51627  87.9142   7.6699 0001918  83.6736 276.4614 13.17649501212500
ONEWEB-0425             
1 51628U 22012G   26159.17379858  .00000046  00000+0  95781-4 0  9993
2 51628  87.8845  38.0623 0002134  78.9450 281.1918 13.10376747208143
ONEWEB-0428             
1 51629U 22012H   26159.15385114 -.00000550  00000+0 -16133-2 0  9998
2 51629  87.8841  38.0735 0001793  80.2295 279.9035 13.10372883208105
ONEWEB-0431             
1 51630U 22012J   26159.20021473  .00000442  00000+0  12295-2 0  9994
2 51630  87.8842  38.0563 0001351  97.0730 263.0551 13.10370927208167
ONEWEB-0434             
1 51631U 22012K   26159.17725153  .00000369  00000+0  10195-2 0  9992
2 51631  87.8848  38.0860 0002428  75.8234 284.3163 13.10375250208140
ONEWEB-0435             
1 51632U 22012L   26159.18539762  .00000670  00000+0  18817-2 0  9997
2 51632  87.8841  38.0714 0001463  77.0855 283.0435 13.10372133208137
